[{"OBJECT_NAME":"LEMUR-2-PETERG","OBJECT_ID":"2017-042S","EPOCH":"2026-03-09T11:34:35.656032","MEAN_MOTION":15.29611459,"ECCENTRICITY":0.00037,"INCLINATION":97.398,"RA_OF_ASC_NODE":253.6596,"ARG_OF_PERICENTER":341.6938,"MEAN_ANOMALY":18.4169,"EPHEMERIS_TYPE":0,"CLASSIFICATION_TYPE":"U","NORAD_CAT_ID":42841,"ELEMENT_SET_NO":999,"REV_AT_EPOCH":47317,"BSTAR":0.00081076471,"MEAN_MOTION_DOT":0.0002324,"MEAN_MOTION_DDOT":0},{"OBJECT_NAME":"STARLINK-2514","OBJECT_ID":"2021-036BH","EPOCH":"2026-03-10T00:00:02.999808","MEAN_MOTION":15.29233473,"ECCENTRICITY":0.00013984,"INCLINATION":53.1518,"RA_OF_ASC_NODE":99.2959,"ARG_OF_PERICENTER":94.8931,"MEAN_ANOMALY":6.894,"EPHEMERIS_TYPE":0,"CLASSIFICATION_TYPE":"U","NORAD_CAT_ID":48331,"ELEMENT_SET_NO":999,"REV_AT_EPOCH":579,"BSTAR":0.0039897327,"MEAN_MOTION_DOT":0.00116147,"MEAN_MOTION_DDOT":0}]
